[{"OBJECT_NAME":"FLOCK 4H-10","OBJECT_ID":"2025-276AZ","EPOCH":"2026-03-09T18:16:56.157312","MEAN_MOTION":15.18574346,"ECCENTRICITY":0.00043041,"INCLINATION":97.4259,"RA_OF_ASC_NODE":143.9692,"ARG_OF_PERICENTER":8.4136,"MEAN_ANOMALY":351.717,"EPHEMERIS_TYPE":0,"CLASSIFICATION_TYPE":"U","NORAD_CAT_ID":66713,"ELEMENT_SET_NO":999,"REV_AT_EPOCH":1532,"BSTAR":0.00041463454,"MEAN_MOTION_DOT":8.509e-5,"MEAN_MOTION_DDOT":0},{"OBJECT_NAME":"UNKNOWN","OBJECT_ID":"","EPOCH":"2026-02-23T08:31:05.057760","MEAN_MOTION":14.01835433,"ECCENTRICITY":0.0516167,"INCLINATION":65.5338,"RA_OF_ASC_NODE":24.2147,"ARG_OF_PERICENTER":354.4749,"MEAN_ANOMALY":5.0755,"EPHEMERIS_TYPE":0,"CLASSIFICATION_TYPE":"U","NORAD_CAT_ID":85237,"ELEMENT_SET_NO":999,"REV_AT_EPOCH":61852,"BSTAR":0.0026977,"MEAN_MOTION_DOT":0.00013478,"MEAN_MOTION_DDOT":0}]
